SCATSAT 1               
1 41790U 16059H   26009.12458920  .00001329  00000+0  18258-3 0  9991
2 41790  98.1422  71.1326 0055920  41.6038 318.9407 14.79041545 78076
GSAT-18                 
1 41793U 16060A   26008.86272612 -.00000072  00000+0  00000+0 0  9995
2 41793   0.0260  93.8317 0001935 247.8538 151.2800  1.00283192 33931
SKY MUSTER 2 (NBN1B)    
1 41794U 16060B   26009.20274435 -.00000236  00000+0  00000+0 0  9992
2 41794   0.0158  28.0341 0001445 264.1533  34.3054  1.00271303 33920
HIMAWARI-9              
1 41836U 16064A   26007.91122360 -.00000271  00000+0  00000+0 0  9997
2 41836   0.0097 109.6434 0001007 219.2474 247.3745  1.00274498 33603
SHIJIAN-17 (SJ-17)      
1 41838U 16065A   26008.53181015 -.00000309  00000+0  00000+0 0  9993
2 41838   5.3475  74.5461 0000750 189.6896 148.1220  0.99859501 33602
CAS-2T & KS-1Q          
1 41847U 16066G   26008.64354316  .00001845  00000+0  27039-3 0  9992
2 41847  98.3992  86.1210 0342380 253.3762 102.9580 14.44219850481761
RAVAN                   
1 41849U 16067B   26008.61630619  .00037843  00000+0  90790-3 0  9996
2 41849  98.0128 241.3190 0005855 193.6464 166.4623 15.41273676503011
CELTEE 1                
1 41850U 16067C   26008.57111950  .00007112  00000+0  35673-3 0  9990
2 41850  98.0857 224.2450 0002411  73.6937 286.4560 15.17673052501654
OPTICUBE 04             
1 41851U 16067D   26008.49811684  .00003680  00000+0  23834-3 0  9995
2 41851  98.0817 212.3659 0014838 300.7266  59.2499 15.08751925501085
AEROCUBE 8D             
1 41852U 16067E   26008.58184464  .00009845  00000+0  43913-3 0  9994
2 41852  98.0879 226.6905 0003471 351.3024   8.8150 15.21624775501778
AEROCUBE 8C             
1 41853U 16067F   26008.56494886  .00010054  00000+0  44570-3 0  9999
2 41853  98.0740 224.1176 0004165 252.7907 107.2871 15.21827009501762
YUNHAI-1 01             
1 41857U 16068A   26008.65478972  .00000291  00000+0  12322-3 0  9994
2 41857  98.5886  21.1073 0006196 136.3056 223.8619 14.32669815478983
GSAT0207 (GALILEO 15)   
1 41859U 16069A   26007.02155920 -.00000019  00000+0  00000+0 0  9997
2 41859  55.3962 105.5497 0003227 310.5426  49.4365  1.70474446 56655
GSAT0212 (GALILEO 16)   
1 41860U 16069B   26007.46177178 -.00000020  00000+0  00000+0 0  9998
2 41860  55.3942 105.5328 0002154   3.1780 356.8318  1.70474681 56917
GSAT0213 (GALILEO 17)   
1 41861U 16069C   26008.41587451 -.00000023  00000+0  00000+0 0  9997
2 41861  55.3970 105.5140 0003342 284.3540  75.6187  1.70474988 56794
GSAT0214 (GALILEO 18)   
1 41862U 16069D   26008.56189677 -.00000023  00000+0  00000+0 0  9992
2 41862  55.3956 105.5028 0002417 287.8661  72.1174  1.70474836 56923
GOES 16                 
1 41866U 16071A   26008.57595875 -.00000085  00000+0  00000+0 0  9999
2 41866   0.0898  99.2609 0003211 177.6898 293.8167  1.00271034 33505
TIANLIAN 1-04           
1 41869U 16072A   26008.60252951  .00000037  00000+0  00000+0 0  9998
2 41869   0.4555  83.3875 0043821  97.6579 320.8186  1.00274013 33703
GOKTURK 1A              
1 41875U 16073A   26008.65930226 -.00000336  00000+0 -56744-4 0  9994
2 41875  98.1421 265.6647 0001337  79.9274 280.2078 14.62748487485500
RESOURCESAT-2A          
1 41877U 16074A   26008.65424399  .00000303  00000+0  15827-3 0  9994
2 41877  98.7716  83.3491 0002352 157.9151 202.2128 14.21592781471634
WGS F8 (USA 272)        
1 41879U 16075A   26007.62951154 -.00000200  00000+0  00000+0 0  9997
2 41879   0.0103  12.4904 0000450 322.9566 148.1906  1.00270496 33214
FENGYUN 4A              
1 41882U 16077A   26008.62119904 -.00000351  00000+0  00000+0 0  9990
2 41882   1.9182  82.1244 0005378 136.7812 236.6909  1.00272967 33339
CYGFM05                 
1 41884U 16078A   26008.30617508  .00021996  00000+0  39549-3 0  9992
2 41884  34.9572 233.4472 0007859  60.8235 299.3273 15.48857412503889
CYGFM04                 
1 41885U 16078B   26007.95796071  .00020719  00000+0  33657-3 0  9992
2 41885  34.9319 209.7230 0006589  87.9455 272.2022 15.51727506504012
CYGFM02                 
1 41886U 16078C   26008.25292277  .00027710  00000+0  42561-3 0  9998
2 41886  34.9410 205.7544 0008087  92.4631 267.7018 15.53224199504196
CYGFM01                 
1 41887U 16078D   26008.03027778  .00018650  00000+0  32854-3 0  9994
2 41887  34.9404 237.4126 0007774  47.8735 312.2647 15.49459858503784
CYGFM08                 
1 41888U 16078E   26008.25801133  .00023885  00000+0  40121-3 0  9996
2 41888  34.9431 218.5913 0008768  80.0282 280.1429 15.50754692504057
CYGFM07                 
1 41890U 16078G   26008.24998852  .00024959  00000+0  41035-3 0  9991
2 41890  34.9450 207.4712 0006832  99.0425 261.1071 15.51365783504078
CYGFM03                 
1 41891U 16078H   26007.95956198  .00020050  00000+0  33151-3 0  9994
2 41891  34.9402 211.3161 0006604  78.0201 282.1262 15.51240080504004
ECHOSTAR 19             
1 41893U 16079A   26008.57743209 -.00000132  00000+0  00000+0 0  9996
2 41893   0.0191  42.3144 0001474 244.9603 291.6202  1.00270355 33102
ARASE (ERG)             
1 41896U 16080A   26007.59106426  .00000724  00000+0  14856-2 0  9999
2 41896  31.5729  72.1674 6995328 309.3816   7.1725  2.57285783 84142
TANSAT                  
1 41898U 16081A   26008.62141667  .00000268  00000+0  66439-4 0  9992
2 41898  98.5303   4.2336 0021756  82.1622 278.2046 14.59806023481347
YIJIAN                  
1 41899U 16081B   26008.51772056  .00000995  00000+0  21486-3 0  9992
2 41899  98.5289   1.5712 0022150  83.0395 277.3323 14.60499177481286
SPARK 1                 
1 41900U 16081C   26008.56398152  .00000782  00000+0  17450-3 0  9991
2 41900  98.5377 358.2701 0025038  92.7884 267.6181 14.59538897480986
SPARK 2                 
1 41901U 16081D   26008.55331413  .00000949  00000+0  21236-3 0  9990
2 41901  98.5350 353.7362 0026695  96.4064 264.0176 14.58904560480845
JCSAT-110A (JCSAT-15)   
1 41903U 16082A   26008.04772206 -.00000347  00000+0  00000+0 0  9991
2 41903   0.0193  39.2884 0000704 271.5092 284.0384  1.00269951 33157
STAR ONE D1             
1 41904U 16082B   26008.29472361  .00000000  00000+0  00000+0 0  9993
2 41904   0.0307  61.3181 0002841 266.8920 161.7534  1.00265407 33174
TJS-2                   
1 41911U 17001A   26008.68078745  .00000000  00000+0  00000+0 0  9994
2 41911   0.4218  87.8259 0002590 209.5163 122.5056  1.00272272 33116
JILIN-1 03              
1 41914U 17002B   26008.64466522  .00016726  00000+0  46241-3 0  9991
2 41914  97.1992  18.4483 0007689  44.5738 315.6124 15.37068693497311
IRIDIUM 106             
1 41917U 17003A   26008.67442482  .00000077  00000+0  20540-4 0  9994
2 41917  86.4004 155.2098 0002323  88.1964 271.9498 14.34217902470343
IRIDIUM 103             
1 41918U 17003B   26008.66173977  .00000078  00000+0  20757-4 0  9995
2 41918  86.4005 155.1155 0002242 104.4819 255.6625 14.34217364470364
IRIDIUM 109             
1 41919U 17003C   26008.45877575  .00000313  00000+0  10461-3 0  9990
2 41919  86.4006 155.2570 0002026  96.1904 263.9523 14.34218179470308
IRIDIUM 102             
1 41920U 17003D   26008.63636200  .00000363  00000+0  12271-3 0  9996
2 41920  86.4007 155.1099 0001915  95.1616 264.9799 14.34215989470415
IRIDIUM 105             
1 41921U 17003E   26008.39776631  .00000634  00000+0  21945-3 0  9992
2 41921  86.3995 123.6987 0002055  96.6501 263.4928 14.34212522472232
IRIDIUM 104             
1 41922U 17003F   26009.13743306  .00000068  00000+0  17103-4 0  9992
2 41922  86.4007 154.9408 0001894 105.3052 254.8353 14.34217793470477
IRIDIUM 114             
1 41923U 17003G   26009.14377574  .00000198  00000+0  63512-4 0  9993
2 41923  86.4005 154.9221 0001965 100.6569 259.4848 14.34218052470456
IRIDIUM 108             
1 41924U 17003H   26009.03252901 -.00000055  00000+0 -26561-4 0  9995
2 41924  86.3992 123.3222 0001881  93.8916 266.2495 14.34217177472293
IRIDIUM 112             
1 41925U 17003J   26009.13109048  .00000277  00000+0  91734-4 0  9998
2 41925  86.4000 154.7769 0001877  98.3363 261.8045 14.34217996470479
IRIDIUM 111             
1 41926U 17003K   26009.11840573  .00000248  00000+0  81630-4 0  9994
2 41926  86.4004 154.8492 0002068  96.3632 263.7800 14.34217570470454
SBIRS GEO-4 (USA 273)   
1 41937U 17004A   26008.81480752  .00000129  00000+0  00000+0 0  9997
2 41937   1.9528  38.0646 0002332 252.5142 131.9963  1.00272108 33008
HISPASAT 36W-1          
1 41942U 17006A   26008.80354079 -.00000238  00000+0  00000+0 0  9998
2 41942   0.0122 199.4924 0000931  90.0489  72.0709  1.00271482 32643
TELKOM 3S               
1 41944U 17007A   26008.76272659 -.00000356  00000+0  00000+0 0  9990
2 41944   0.0156  70.3756 0002387 222.0262 208.4724  1.00273479 32544
INTELSAT 32E (IS-32E)   
1 41945U 17007B   26008.80215412 -.00000262  00000+0  00000+0 0  9996
2 41945   0.0256  79.8668 0000589 300.4304 333.6316  1.00272742 32621
CARTOSAT-2D             
1 41948U 17008A   26009.16414347  .00005344  00000+0  25703-3 0  9994
2 41948  97.4349  71.2379 0005922  72.7297 287.4585 15.19203357493433
SENTINEL-2B             
1 42063U 17013A   26009.18649804  .00000170  00000+0  81679-4 0  9996
2 42063  98.5679  86.2433 0001142  94.6730 265.4583 14.30817399461902
ECHOSTAR 23             
1 42070U 17014A   26008.64624587 -.00000051  00000+0  00000+0 0  9999
2 42070   0.0193  38.2453 0001831 246.3205 306.3608  1.00270766 32323
WGS F9 (USA 275)        
1 42075U 17016A   26008.80830750  .00000000  00000+0  00000+0 0  9998
2 42075   0.0178  43.8218 0000689 301.7285  41.8073  1.00269425 32299
SES-10                  
1 42432U 17017A   26008.19350396 -.00000268  00000+0  00000+0 0  9998
2 42432   0.0178  43.4891 0002892 256.4706 170.5352  1.00270500 32141
CHINASAT 16 (SJ-13)     
1 42662U 17018A   26008.04772206 -.00000348  00000+0  00000+0 0  9995
2 42662   0.0471  85.0469 0007528 171.6057 338.6606  1.00270179 32144
